start=new Date('2023-04-16T00:00:00.000Z').valueOf();
sats=[{"APOAPSIS":"547.894","TLE_LINE1":"1 47796U 21018K   23105.82812043  .00031212  00000-0  21023-2 0  9993","EPHEMERIS_TYPE":"0","INCLINATION":"53.0537","REV_AT_EPOCH":"11693","MEAN_MOTION":"15.06448349","TLE_LINE2":"2 47796  53.0537 305.0308 0001196  70.7013 289.4105 15.06448349116935","NORAD_CAT_ID":"47796","DECAY_DATE":null,"RCS_SIZE":"LARGE","LAUNCH_DATE":"2021-03-11","ECCENTRICITY":"0.00011960","CENTER_NAME":"EARTH","ARG_OF_PERICENTER":"70.7013","PERIOD":"95.589","OBJECT_ID":"2021-018K","COUNTRY_CODE":"US","OBJECT_NAME":"STARLINK-2373","SEMIMAJOR_AXIS":"6925.200","MEAN_ANOMALY":"289.4105","EPOCH":"2023-04-15T19:52:29.605152","CLASSIFICATION_TYPE":"U","GP_ID":"230129077","FILE":"3888171","OBJECT_TYPE":"PAYLOAD","TIME_SYSTEM":"UTC","RA_OF_ASC_NODE":"305.0308","MEAN_MOTION_DDOT":"0.0000000000000","MEAN_MOTION_DOT":"0.00031212","BSTAR":"0.00210230000000","SITE":"AFETR","MEAN_ELEMENT_THEORY":"SGP4","ELEMENT_SET_NO":"999","REF_FRAME":"TEME","PERIAPSIS":"546.237"},{"OBJECT_TYPE":"PAYLOAD","FILE":"3888171","TIME_SYSTEM":"UTC","CLASSIFICATION_TYPE":"U","GP_ID":"230128827","EPOCH":"2023-04-15T20:44:55.324608","OBJECT_NAME":"STARLINK-2377","SEMIMAJOR_AXIS":"6925.297","MEAN_ANOMALY":"257.9071","REF_FRAME":"TEME","ELEMENT_SET_NO":"999","PERIAPSIS":"546.460","SITE":"AFETR","MEAN_ELEMENT_THEORY":"SGP4","RA_OF_ASC_NODE":"329.8707","MEAN_MOTION_DOT":"0.00019712","MEAN_MOTION_DDOT":"0.0000000000000","BSTAR":"0.00133790000000","TLE_LINE2":"2 47797  53.0551 329.8707 0001014 102.2032 257.9071 15.06416873116939","MEAN_MOTION":"15.06416873","TLE_LINE1":"1 47797U 21018L   23105.86452922  .00019712  00000-0  13379-2 0  9990","EPHEMERIS_TYPE":"0","APOAPSIS":"547.864","INCLINATION":"53.0551","REV_AT_EPOCH":"11693","ARG_OF_PERICENTER":"102.2032","OBJECT_ID":"2021-018L","PERIOD":"95.591","COUNTRY_CODE":"US","RCS_SIZE":"LARGE","CENTER_NAME":"EARTH","LAUNCH_DATE":"2021-03-11","ECCENTRICITY":"0.00010140","NORAD_CAT_ID":"47797","DECAY_DATE":null},{"BSTAR":"0.00202200000000","MEAN_MOTION_DOT":"0.00030032","MEAN_MOTION_DDOT":"0.0000000000000","RA_OF_ASC_NODE":"304.6842","MEAN_ELEMENT_THEORY":"SGP4","SITE":"AFETR","PERIAPSIS":"546.187","ELEMENT_SET_NO":"999","REF_FRAME":"TEME","MEAN_ANOMALY":"279.4873","SEMIMAJOR_AXIS":"6925.098","OBJECT_NAME":"STARLINK-2379","EPOCH":"2023-04-15T21:43:54.782688","GP_ID":"230130078","CLASSIFICATION_TYPE":"U","TIME_SYSTEM":"UTC","FILE":"3888171","OBJECT_TYPE":"PAYLOAD","NORAD_CAT_ID":"47798","DECAY_DATE":null,"CENTER_NAME":"EARTH","LAUNCH_DATE":"2021-03-11","ECCENTRICITY":"0.00011200","RCS_SIZE":"LARGE","COUNTRY_CODE":"US","PERIOD":"95.587","OBJECT_ID":"2021-018M","ARG_OF_PERICENTER":"80.6242","REV_AT_EPOCH":"11729","INCLINATION":"53.0543","TLE_LINE1":"1 47798U 21018M   23105.90549517  .00030032  00000-0  20220-2 0  9994","APOAPSIS":"547.738","EPHEMERIS_TYPE":"0","MEAN_MOTION":"15.06481870","TLE_LINE2":"2 47798  53.0543 304.6842 0001120  80.6242 279.4873 15.06481870117290"},{"ELEMENT_SET_NO":"999","REF_FRAME":"TEME","PERIAPSIS":"546.298","RA_OF_ASC_NODE":"304.7022","MEAN_MOTION_DDOT":"0.0000000000000","MEAN_MOTION_DOT":"0.00030819","BSTAR":"0.00207430000000","SITE":"AFETR","MEAN_ELEMENT_THEORY":"SGP4","CLASSIFICATION_TYPE":"U","GP_ID":"230130325","OBJECT_TYPE":"PAYLOAD","FILE":"3888171","TIME_SYSTEM":"UTC","OBJECT_NAME":"STARLINK-2380","SEMIMAJOR_AXIS":"6925.099","MEAN_ANOMALY":"287.7207","EPOCH":"2023-04-15T21:38:36.347712","ARG_OF_PERICENTER":"72.3887","PERIOD":"95.587","OBJECT_ID":"2021-018N","COUNTRY_CODE":"US","DECAY_DATE":null,"NORAD_CAT_ID":"47799","RCS_SIZE":"LARGE","ECCENTRICITY":"0.00009620","LAUNCH_DATE":"2021-03-11","CENTER_NAME":"EARTH","MEAN_MOTION":"15.06481274","TLE_LINE2":"2 47799  53.0537 304.7022 0000962  72.3887 287.7207 15.06481274117281","EPHEMERIS_TYPE":"0","TLE_LINE1":"1 47799U 21018N   23105.90180958  .00030819  00000-0  20743-2 0  9998","APOAPSIS":"547.631","INCLINATION":"53.0537","REV_AT_EPOCH":"11728"},{"GP_ID":"230128578","CLASSIFICATION_TYPE":"U","TIME_SYSTEM":"UTC","FILE":"3888171","OBJECT_TYPE":"PAYLOAD","OBJECT_NAME":"STARLINK-2381","MEAN_ANOMALY":"272.2826","SEMIMAJOR_AXIS":"6925.263","EPOCH":"2023-04-15T20:34:59.027232","ELEMENT_SET_NO":"999","REF_FRAME":"TEME","PERIAPSIS":"546.445","RA_OF_ASC_NODE":"304.9013","BSTAR":"0.00152940000000","MEAN_MOTION_DOT":"0.00022589","MEAN_MOTION_DDOT":"0.0000000000000","SITE":"AFETR","MEAN_ELEMENT_THEORY":"SGP4","MEAN_MOTION":"15.06427876","TLE_LINE2":"2 47800  53.0546 304.9013 0000986  87.8276 272.2826 15.06427876117289","INCLINATION":"53.0546","TLE_LINE1":"1 47800U 21018P   23105.85762763  .00022589  00000-0  15294-2 0  9995","APOAPSIS":"547.811","EPHEMERIS_TYPE":"0","REV_AT_EPOCH":"11728","PERIOD":"95.590","OBJECT_ID":"2021-018P","ARG_OF_PERICENTER":"87.8276","COUNTRY_CODE":"US","DECAY_DATE":null,"NORAD_CAT_ID":"47800","RCS_SIZE":"LARGE","ECCENTRICITY":"0.00009860","LAUNCH_DATE":"2021-03-11","CENTER_NAME":"EARTH"},{"OBJECT_NAME":"STARLINK-2382","SEMIMAJOR_AXIS":"6925.207","MEAN_ANOMALY":"278.9768","EPOCH":"2023-04-15T19:49:12.058464","CLASSIFICATION_TYPE":"U","GP_ID":"230129327","FILE":"3888171","OBJECT_TYPE":"PAYLOAD","TIME_SYSTEM":"UTC","RA_OF_ASC_NODE":"310.1249","MEAN_MOTION_DDOT":"0.0000000000000","MEAN_MOTION_DOT":"0.00031496","BSTAR":"0.00212130000000","SITE":"AFETR","MEAN_ELEMENT_THEORY":"SGP4","ELEMENT_SET_NO":"999","REF_FRAME":"TEME","PERIAPSIS":"546.272","TLE_LINE1":"1 47801U 21018Q   23105.82583401  .00031496  00000-0  21213-2 0  9998","EPHEMERIS_TYPE":"0","APOAPSIS":"547.872","INCLINATION":"53.0529","REV_AT_EPOCH":"11721","MEAN_MOTION":"15.06446113","TLE_LINE2":"2 47801  53.0529 310.1249 0001155  81.1351 278.9768 15.06446113117217","DECAY_DATE":null,"NORAD_CAT_ID":"47801","RCS_SIZE":"LARGE","LAUNCH_DATE":"2021-03-11","CENTER_NAME":"EARTH","ECCENTRICITY":"0.00011550","ARG_OF_PERICENTER":"81.1351","PERIOD":"95.589","OBJECT_ID":"2021-018Q","COUNTRY_CODE":"US"},{"COUNTRY_CODE":"US","OBJECT_ID":"2021-018R","PERIOD":"95.589","ARG_OF_PERICENTER":"90.1196","DECAY_DATE":null,"NORAD_CAT_ID":"47802","LAUNCH_DATE":"2021-03-11","CENTER_NAME":"EARTH","ECCENTRICITY":"0.00009240","RCS_SIZE":"LARGE","MEAN_MOTION":"15.06445593","TLE_LINE2":"2 47802  53.0542 329.8347 0000924  90.1196 269.9899 15.06445593116944","REV_AT_EPOCH":"11694","INCLINATION":"53.0542","APOAPSIS":"547.714","TLE_LINE1":"1 47802U 21018R   23105.87189359  .00033867  00000-0  22788-2 0  9990","EPHEMERIS_TYPE":"0","PERIAPSIS":"546.434","ELEMENT_SET_NO":"999","REF_FRAME":"TEME","BSTAR":"0.00227880000000","MEAN_MOTION_DOT":"0.00033867","MEAN_MOTION_DDOT":"0.0000000000000","RA_OF_ASC_NODE":"329.8347","MEAN_ELEMENT_THEORY":"SGP4","SITE":"AFETR","GP_ID":"230129579","CLASSIFICATION_TYPE":"U","TIME_SYSTEM":"UTC","FILE":"3888171","OBJECT_TYPE":"PAYLOAD","SEMIMAJOR_AXIS":"6925.209","MEAN_ANOMALY":"269.9899","OBJECT_NAME":"STARLINK-2383","EPOCH":"2023-04-15T20:55:31.606176"},{"MEAN_MOTION_DDOT":"0.0000000000000","MEAN_MOTION_DOT":"-0.00021185","BSTAR":"-0.00141380000000","RA_OF_ASC_NODE":"305.1460","MEAN_ELEMENT_THEORY":"SGP4","SITE":"AFETR","PERIAPSIS":"546.649","ELEMENT_SET_NO":"999","REF_FRAME":"TEME","MEAN_ANOMALY":"237.8298","SEMIMAJOR_AXIS":"6925.852","OBJECT_NAME":"STARLINK-2384","EPOCH":"2023-04-15T19:15:31.310208","CLASSIFICATION_TYPE":"U","GP_ID":"230129826","OBJECT_TYPE":"PAYLOAD","FILE":"3888171","TIME_SYSTEM":"UTC","DECAY_DATE":null,"NORAD_CAT_ID":"47803","ECCENTRICITY":"0.00015420","LAUNCH_DATE":"2021-03-11","CENTER_NAME":"EARTH","RCS_SIZE":"LARGE","COUNTRY_CODE":"US","ARG_OF_PERICENTER":"122.2841","OBJECT_ID":"2021-018S","PERIOD":"95.603","REV_AT_EPOCH":"11727","TLE_LINE1":"1 47803U 21018S   23105.80244572 -.00021185  00000-0 -14138-2 0  9995","EPHEMERIS_TYPE":"0","APOAPSIS":"548.785","INCLINATION":"53.0521","MEAN_MOTION":"15.06235902","TLE_LINE2":"2 47803  53.0521 305.1460 0001542 122.2841 237.8298 15.06235902117271"},{"TLE_LINE2":"2 47804  53.0531 305.0830 0001263  79.6751 280.4380 15.06447126117277","MEAN_MOTION":"15.06447126","REV_AT_EPOCH":"11727","TLE_LINE1":"1 47804U 21018T   23105.81706832  .00032751  00000-0  22046-2 0  9995","EPHEMERIS_TYPE":"0","APOAPSIS":"547.944","INCLINATION":"53.0531","COUNTRY_CODE":"US","ARG_OF_PERICENTER":"79.6751","OBJECT_ID":"2021-018T","PERIOD":"95.589","ECCENTRICITY":"0.00012630","LAUNCH_DATE":"2021-03-11","CENTER_NAME":"EARTH","RCS_SIZE":"LARGE","DECAY_DATE":null,"NORAD_CAT_ID":"47804","OBJECT_TYPE":"PAYLOAD","FILE":"3888171","TIME_SYSTEM":"UTC","CLASSIFICATION_TYPE":"U","GP_ID":"230129078","EPOCH":"2023-04-15T19:36:34.702848","MEAN_ANOMALY":"280.4380","SEMIMAJOR_AXIS":"6925.204","OBJECT_NAME":"STARLINK-2385","PERIAPSIS":"546.194","REF_FRAME":"TEME","ELEMENT_SET_NO":"999","MEAN_ELEMENT_THEORY":"SGP4","SITE":"AFETR","MEAN_MOTION_DDOT":"0.0000000000000","MEAN_MOTION_DOT":"0.00032751","BSTAR":"0.00220460000000","RA_OF_ASC_NODE":"305.0830"},{"MEAN_ELEMENT_THEORY":"SGP4","SITE":"AFETR","BSTAR":"0.00163790000000","MEAN_MOTION_DDOT":"0.0000000000000","MEAN_MOTION_DOT":"0.00024231","RA_OF_ASC_NODE":"305.1739","PERIAPSIS":"546.308","REF_FRAME":"TEME","ELEMENT_SET_NO":"999","EPOCH":"2023-04-15T20:24:23.024736","MEAN_ANOMALY":"274.7819","SEMIMAJOR_AXIS":"6925.202","OBJECT_NAME":"STARLINK-2386","TIME_SYSTEM":"UTC","FILE":"3888171","OBJECT_TYPE":"PAYLOAD","GP_ID":"230128828","CLASSIFICATION_TYPE":"U","ECCENTRICITY":"0.00010960","LAUNCH_DATE":"2021-03-11","CENTER_NAME":"EARTH","RCS_SIZE":"LARGE","DECAY_DATE":null,"NORAD_CAT_ID":"47805","COUNTRY_CODE":"US","PERIOD":"95.589","OBJECT_ID":"2021-018U","ARG_OF_PERICENTER":"85.3295","REV_AT_EPOCH":"11728","INCLINATION":"53.0541","TLE_LINE1":"1 47805U 21018U   23105.85026649  .00024231  00000-0  16379-2 0  9997","EPHEMERIS_TYPE":"0","APOAPSIS":"547.826","TLE_LINE2":"2 47805  53.0541 305.1739 0001096  85.3295 274.7819 15.06447708117289","MEAN_MOTION":"15.06447708"}];
